{
  "links" : {
    "next" : "https://api.nasa.gov/neo/rest/v1/feed?start_date=2010-01-16&end_date=2010-01-16&detailed=true&api_key=t0TVs3DtDT2H8Oy2Zy8m2eVrNsAVKAexjcZXUckd",
    "prev" : "https://api.nasa.gov/neo/rest/v1/feed?start_date=2010-01-14&end_date=2010-01-14&detailed=true&api_key=t0TVs3DtDT2H8Oy2Zy8m2eVrNsAVKAexjcZXUckd",
    "self" : "https://api.nasa.gov/neo/rest/v1/feed?start_date=2010-01-15&end_date=2010-01-15&detailed=true&api_key=t0TVs3DtDT2H8Oy2Zy8m2eVrNsAVKAexjcZXUckd"
  },
  "element_count" : 6,
  "near_earth_objects" : {
    "2010-01-15" : [ {
      "links" : {
        "self" : "https://api.nasa.gov/neo/rest/v1/neo/2162117?api_key=t0TVs3DtDT2H8Oy2Zy8m2eVrNsAVKAexjcZXUckd"
      },
      "neo_reference_id" : "2162117",
      "name" : "162117 (1998 SD15)",
      "nasa_jpl_url" : "http://ssd.jpl.nasa.gov/sbdb.cgi?sstr=2162117",
      "absolute_magnitude_h" : 19.1,
      "estimated_diameter" : {
        "kilometers" : {
          "estimated_diameter_min" : 0.4023045798,
          "estimated_diameter_max" : 0.8995803882
        },
        "meters" : {
          "estimated_diameter_min" : 402.3045798343,
          "estimated_diameter_max" : 899.5803881691
        },
        "miles" : {
          "estimated_diameter_min" : 0.2499803991,
          "estimated_diameter_max" : 0.5589731654
        },
        "feet" : {
          "estimated_diameter_min" : 1319.8969577037,
          "estimated_diameter_max" : 2951.3793207207
        }
      },
      "is_potentially_hazardous_asteroid" : false,
      "close_approach_data" : [ {
        "close_approach_date" : "2010-01-15",
        "epoch_date_close_approach" : 1263542400000,
        "relative_velocity" : {
          "kilometers_per_second" : "21.6186489797",
          "kilometers_per_hour" : "77827.136327073",
          "miles_per_hour" : "48358.755902786"
        },
        "miss_distance" : {
          "astronomical" : "0.4652173276",
          "lunar" : "180.969543457",
          "kilometers" : "69595520",
          "miles" : "43244652"
        },
        "orbiting_body" : "Earth"
      } ],
      "orbital_data" : {
        "orbit_id" : "68",
        "orbit_determination_date" : "2017-09-27 06:52:02",
        "orbit_uncertainty" : "0",
        "minimum_orbit_intersection" : ".111269",
        "jupiter_tisserand_invariant" : "6.290",
        "epoch_osculation" : "2456845.5",
        "eccentricity" : ".34482914407328",
        "semi_major_axis" : ".9324802916223255",
        "inclination" : "26.79523472652475",
        "ascending_node_longitude" : "183.9516985285866",
        "orbital_period" : "328.8954907560478",
        "perihelion_distance" : ".6109339107969964",
        "perihelion_argument" : "35.82937565852917",
        "aphelion_distance" : "1.254026672447655",
        "perihelion_time" : "2456902.656426601364",
        "mean_anomaly" : "297.4381402153271",
        "mean_motion" : "1.094572622970448",
        "equinox" : "J2000"
      }
    }, {
      "links" : {
        "self" : "https://api.nasa.gov/neo/rest/v1/neo/2275558?api_key=t0TVs3DtDT2H8Oy2Zy8m2eVrNsAVKAexjcZXUckd"
      },
      "neo_reference_id" : "2275558",
      "name" : "275558 (1999 RH33)",
      "nasa_jpl_url" : "http://ssd.jpl.nasa.gov/sbdb.cgi?sstr=2275558",
      "absolute_magnitude_h" : 19.0,
      "estimated_diameter" : {
        "kilometers" : {
          "estimated_diameter_min" : 0.4212646106,
          "estimated_diameter_max" : 0.9419763057
        },
        "meters" : {
          "estimated_diameter_min" : 421.2646105562,
          "estimated_diameter_max" : 941.9763057186
        },
        "miles" : {
          "estimated_diameter_min" : 0.2617616123,
          "estimated_diameter_max" : 0.5853167591
        },
        "feet" : {
          "estimated_diameter_min" : 1382.1017848971,
          "estimated_diameter_max" : 3090.4735428537
        }
      },
      "is_potentially_hazardous_asteroid" : false,
      "close_approach_data" : [ {
        "close_approach_date" : "2010-01-15",
        "epoch_date_close_approach" : 1263542400000,
        "relative_velocity" : {
          "kilometers_per_second" : "4.6144136082",
          "kilometers_per_hour" : "16611.8889895534",
          "miles_per_hour" : "10321.9818002033"
        },
        "miss_distance" : {
          "astronomical" : "0.4483021255",
          "lunar" : "174.3895263672",
          "kilometers" : "67065044",
          "miles" : "41672284"
        },
        "orbiting_body" : "Earth"
      } ],
      "orbital_data" : {
        "orbit_id" : "125",
        "orbit_determination_date" : "2017-04-06 09:24:33",
        "orbit_uncertainty" : "0",
        "minimum_orbit_intersection" : ".29665",
        "jupiter_tisserand_invariant" : "4.411",
        "epoch_osculation" : "2458000.5",
        "eccentricity" : ".170828923846492",
        "semi_major_axis" : "1.55114919683951",
        "inclination" : "11.01653479541067",
        "ascending_node_longitude" : "168.3533451579198",
        "orbital_period" : "705.6328412562843",
        "perihelion_distance" : "1.286168048818066",
        "perihelion_argument" : "351.48891852",
        "aphelion_distance" : "1.816130344860954",
        "perihelion_time" : "2458108.989446660338",
        "mean_anomaly" : "304.6508176572572",
        "mean_motion" : ".5101803359365593",
        "equinox" : "J2000"
      }
    }, {
      "links" : {
        "self" : "https://api.nasa.gov/neo/rest/v1/neo/2341050?api_key=t0TVs3DtDT2H8Oy2Zy8m2eVrNsAVKAexjcZXUckd"
      },
      "neo_reference_id" : "2341050",
      "name" : "341050 (2007 HZ)",
      "nasa_jpl_url" : "http://ssd.jpl.nasa.gov/sbdb.cgi?sstr=2341050",
      "absolute_magnitude_h" : 20.3,
      "estimated_diameter" : {
        "kilometers" : {
          "estimated_diameter_min" : 0.2315021222,
          "estimated_diameter_max" : 0.5176544822
        },
        "meters" : {
          "estimated_diameter_min" : 231.5021222103,
          "estimated_diameter_max" : 517.6544821978
        },
        "miles" : {
          "estimated_diameter_min" : 0.1438487052,
          "estimated_diameter_max" : 0.3216554833
        },
        "feet" : {
          "estimated_diameter_min" : 759.5214226325,
          "estimated_diameter_max" : 1698.3415313737
        }
      },
      "is_potentially_hazardous_asteroid" : false,
      "close_approach_data" : [ {
        "close_approach_date" : "2010-01-15",
        "epoch_date_close_approach" : 1263542400000,
        "relative_velocity" : {
          "kilometers_per_second" : "0.5662447233",
          "kilometers_per_hour" : "2038.4810037993",
          "miles_per_hour" : "1266.6328214996"
        },
        "miss_distance" : {
          "astronomical" : "0.2099473033",
          "lunar" : "81.6695022583",
          "kilometers" : "31407670",
          "miles" : "19515822"
        },
        "orbiting_body" : "Earth"
      } ],
      "orbital_data" : {
        "orbit_id" : "64",
        "orbit_determination_date" : "2017-04-06 09:23:17",
        "orbit_uncertainty" : "0",
        "minimum_orbit_intersection" : ".203225",
        "jupiter_tisserand_invariant" : "4.907",
        "epoch_osculation" : "2458000.5",
        "eccentricity" : ".1424733737427288",
        "semi_major_axis" : "1.329180740455743",
        "inclination" : "7.418828454978573",
        "ascending_node_longitude" : "208.3570175944874",
        "orbital_period" : "559.7247185038677",
        "perihelion_distance" : "1.139807876049155",
        "perihelion_argument" : "259.0651523723682",
        "aphelion_distance" : "1.518553604862331",
        "perihelion_time" : "2458000.149070890995",
        "mean_anomaly" : ".2257082366838677",
        "mean_motion" : ".6431733101983995",
        "equinox" : "J2000"
      }
    } ]
  }
}